{"fetched_at":"2026-07-19T07:04:49.137Z","source":"https://celestrak.org/NORAD/elements/gp.php?GROUP=oneweb&FORMAT=JSON","constellation":"oneweb","records":[{"OBJECT_NAME":"ONEWEB-0504","OBJECT_ID":"2022-138K","EPOCH":"2026-07-18T19:40:20.521344","CLASSIFICATION_TYPE":"U","MEAN_MOTION":13.19726147,"ECCENTRICITY":0.0001904,"INCLINATION":87.9195,"RA_OF_ASC_NODE":298.6691,"ARG_OF_PERICENTER":106.1255,"MEAN_ANOMALY":254.0088,"EPHEMERIS_TYPE":0,"NORAD_CAT_ID":54122,"ELEMENT_SET_NO":999,"REV_AT_EPOCH":18100,"BSTAR":0.0001286,"MEAN_MOTION_DOT":6.4e-7,"MEAN_MOTION_DDOT":0},{"OBJECT_NAME":"ONEWEB-0505","OBJECT_ID":"2022-138L","EPOCH":"2026-07-18T19:35:46.692096","CLASSIFICATION_TYPE":"U","MEAN_MOTION":13.19723252,"ECCENTRICITY":0.0002092,"INCLINATION":87.9192,"RA_OF_ASC_NODE":298.6702,"ARG_OF_PERICENTER":114.0236,"MEAN_ANOMALY":246.1116,"EPHEMERIS_TYPE":0,"NORAD_CAT_ID":54123,"ELEMENT_SET_NO":999,"REV_AT_EPOCH":18098,"BSTAR":0.000057773,"MEAN_MOTION_DOT":3.6e-7,"MEAN_MOTION_DDOT":0},{"OBJECT_NAME":"ONEWEB-0506","OBJECT_ID":"2022-138M","EPOCH":"2026-07-18T18:59:25.346976","CLASSIFICATION_TYPE":"U","MEAN_MOTION":13.19725126,"ECCENTRICITY":0.0002078,"INCLINATION":87.9195,"RA_OF_ASC_NODE":298.6732,"ARG_OF_PERICENTER":110.1639,"MEAN_ANOMALY":249.9717,"EPHEMERIS_TYPE":0,"NORAD_CAT_ID":54124,"ELEMENT_SET_NO":999,"REV_AT_EPOCH":18097,"BSTAR":-0.000058125,"MEAN_MOTION_DOT":-1e-7,"MEAN_MOTION_DDOT":0},{"OBJECT_NAME":"ONEWEB-0507","OBJECT_ID":"2022-138N","EPOCH":"2026-07-18T19:28:57.747072","CLASSIFICATION_TYPE":"U","MEAN_MOTION":13.19726681,"ECCENTRICITY":0.0002115,"INCLINATION":87.9186,"RA_OF_ASC_NODE":298.6781,"ARG_OF_PERICENTER":107.0994,"MEAN_ANOMALY":253.037,"EPHEMERIS_TYPE":0,"NORAD_CAT_ID":54125,"ELEMENT_SET_NO":999,"REV_AT_EPOCH":18102,"BSTAR":-0.000052419,"MEAN_MOTION_DOT":-8e-8,"MEAN_MOTION_DDOT":0},{"OBJECT_NAME":"ONEWEB-0508","OBJECT_ID":"2022-138P","EPOCH":"2026-07-18T19:24:25.555104","CLASSIFICATION_TYPE":"U","MEAN_MOTION":13.1972607,"ECCENTRICITY":0.0002277,"INCLINATION":87.9186,"RA_OF_ASC_NODE":298.6786,"ARG_OF_PERICENTER":109.7679,"MEAN_ANOMALY":250.3699,"EPHEMERIS_TYPE":0,"NORAD_CAT_ID":54126,"ELEMENT_SET_NO":999,"REV_AT_EPOCH":18100,"BSTAR":-0.000044407,"MEAN_MOTION_DOT":-5e-8,"MEAN_MOTION_DDOT":0},{"OBJECT_NAME":"ONEWEB-0509","OBJECT_ID":"2022-138Q","EPOCH":"2026-07-18T18:48:01.737216","CLASSIFICATION_TYPE":"U","MEAN_MOTION":13.19724213,"ECCENTRICITY":0.0002077,"INCLINATION":87.9196,"RA_OF_ASC_NODE":298.6763,"ARG_OF_PERICENTER":105.4809,"MEAN_ANOMALY":254.6553,"EPHEMERIS_TYPE":0,"NORAD_CAT_ID":54127,"ELEMENT_SET_NO":999,"REV_AT_EPOCH":18097,"BSTAR":0.000019695,"MEAN_MOTION_DOT":2.1e-7,"MEAN_MOTION_DDOT":0},{"OBJECT_NAME":"ONEWEB-0510","OBJECT_ID":"2022-138R","EPOCH":"2026-07-18T17:20:32.061120","CLASSIFICATION_TYPE":"U","MEAN_MOTION":13.20770546,"ECCENTRICITY":0.0001912,"INCLINATION":87.9177,"RA_OF_ASC_NODE":268.1524,"ARG_OF_PERICENTER":84.0777,"MEAN_ANOMALY":276.0575,"EPHEMERIS_TYPE":0,"NORAD_CAT_ID":54128,"ELEMENT_SET_NO":999,"REV_AT_EPOCH":18344,"BSTAR":0.000049661,"MEAN_MOTION_DOT":3.3e-7,"MEAN_MOTION_DDOT":0},{"OBJECT_NAME":"ONEWEB-0511","OBJECT_ID":"2022-138S","EPOCH":"2026-07-18T18:43:28.315776","CLASSIFICATION_TYPE":"U","MEAN_MOTION":13.19723463,"ECCENTRICITY":0.0001789,"INCLINATION":87.9191,"RA_OF_ASC_NODE":298.6783,"ARG_OF_PERICENTER":105.055,"MEAN_ANOMALY":255.0781,"EPHEMERIS_TYPE":0,"NORAD_CAT_ID":54129,"ELEMENT_SET_NO":999,"REV_AT_EPOCH":18100,"BSTAR":0.000038588,"MEAN_MOTION_DOT":2.8e-7,"MEAN_MOTION_DDOT":0},{"OBJECT_NAME":"ONEWEB-0512","OBJECT_ID":"2022-138T","EPOCH":"2026-07-18T18:32:05.563104","CLASSIFICATION_TYPE":"U","MEAN_MOTION":13.19724964,"ECCENTRICITY":0.0001957,"INCLINATION":87.9184,"RA_OF_ASC_NODE":298.6829,"ARG_OF_PERICENTER":110.9002,"MEAN_ANOMALY":249.234,"EPHEMERIS_TYPE":0,"NORAD_CAT_ID":54130,"ELEMENT_SET_NO":999,"REV_AT_EPOCH":18097,"BSTAR":-0.00044041,"MEAN_MOTION_DOT":-0.00000163,"MEAN_MOTION_DDOT":0},{"OBJECT_NAME":"ONEWEB-0513","OBJECT_ID":"2022-138U","EPOCH":"2026-07-18T18:21:28.698336","CLASSIFICATION_TYPE":"U","MEAN_MOTION":13.20269878,"ECCENTRICITY":0.0001734,"INCLINATION":87.9192,"RA_OF_ASC_NODE":298.6246,"ARG_OF_PERICENTER":127.9427,"MEAN_ANOMALY":232.1863,"EPHEMERIS_TYPE":0,"NORAD_CAT_ID":54131,"ELEMENT_SET_NO":999,"REV_AT_EPOCH":18088,"BSTAR":0.000033961,"MEAN_MOTION_DOT":2.7e-7,"MEAN_MOTION_DDOT":0},{"OBJECT_NAME":"ONEWEB-0514","OBJECT_ID":"2022-138V","EPOCH":"2026-07-18T18:54:50.860224","CLASSIFICATION_TYPE":"U","MEAN_MOTION":13.19724834,"ECCENTRICITY":0.0001958,"INCLINATION":87.9194,"RA_OF_ASC_NODE":298.676,"ARG_OF_PERICENTER":97.3733,"MEAN_ANOMALY":262.7622,"EPHEMERIS_TYPE":0,"NORAD_CAT_ID":54132,"ELEMENT_SET_NO":999,"REV_AT_EPOCH":18099,"BSTAR":-0.00037421,"MEAN_MOTION_DOT":-0.00000137,"MEAN_MOTION_DDOT":0},{"OBJECT_NAME":"ONEWEB-0515","OBJECT_ID":"2022-138W","EPOCH":"2026-07-18T17:01:09.355584","CLASSIFICATION_TYPE":"U","MEAN_MOTION":13.20771842,"ECCENTRICITY":0.0002711,"INCLINATION":87.9186,"RA_OF_ASC_NODE":268.1508,"ARG_OF_PERICENTER":84.5859,"MEAN_ANOMALY":275.5583,"EPHEMERIS_TYPE":0,"NORAD_CAT_ID":54133,"ELEMENT_SET_NO":999,"REV_AT_EPOCH":18346,"BSTAR":-0.000082494,"MEAN_MOTION_DOT":-2.1e-7,"MEAN_MOTION_DDOT":0},{"OBJECT_NAME":"ONEWEB-0516","OBJECT_ID":"2022-138X","EPOCH":"2026-07-18T18:18:27.311904","CLASSIFICATION_TYPE":"U","MEAN_MOTION":13.19724203,"ECCENTRICITY":0.0002155,"INCLINATION":87.9185,"RA_OF_ASC_NODE":298.6848,"ARG_OF_PERICENTER":101.6164,"MEAN_ANOMALY":258.5211,"EPHEMERIS_TYPE":0,"NORAD_CAT_ID":54134,"ELEMENT_SET_NO":999,"REV_AT_EPOCH":18099,"BSTAR":0.00016892,"MEAN_MOTION_DOT":8.1e-7,"MEAN_MOTION_DDOT":0},{"OBJECT_NAME":"ONEWEB-0517","OBJECT_ID":"2022-138Y","EPOCH":"2026-07-18T19:38:04.072416","CLASSIFICATION_TYPE":"U","MEAN_MOTION":13.19726034,"ECCENTRICITY":0.0001706,"INCLINATION":87.9192,"RA_OF_ASC_NODE":298.6685,"ARG_OF_PERICENTER":99.5344,"MEAN_ANOMALY":260.5982,"EPHEMERIS_TYPE":0,"NORAD_CAT_ID":54135,"ELEMENT_SET_NO":999,"REV_AT_EPOCH":18100,"BSTAR":0.000017661,"MEAN_MOTION_DOT":2e-7,"MEAN_MOTION_DDOT":0},{"OBJECT_NAME":"ONEWEB-0518","OBJECT_ID":"2022-138Z","EPOCH":"2026-07-18T18:16:11.320896","CLASSIFICATION_TYPE":"U","MEAN_MOTION":13.19724437,"ECCENTRICITY":0.000223,"INCLINATION":87.9187,"RA_OF_ASC_NODE":298.6872,"ARG_OF_PERICENTER":100.2733,"MEAN_ANOMALY":259.8652,"EPHEMERIS_TYPE":0,"NORAD_CAT_ID":54136,"ELEMENT_SET_NO":999,"REV_AT_EPOCH":18099,"BSTAR":0.000059229,"MEAN_MOTION_DOT":3.7e-7,"MEAN_MOTION_DDOT":0},{"OBJECT_NAME":"ONEWEB-0519","OBJECT_ID":"2022-138AA","EPOCH":"2026-07-18T18:52:34.011264","CLASSIFICATION_TYPE":"U","MEAN_MOTION":13.1972368,"ECCENTRICITY":0.0001817,"INCLINATION":87.9192,"RA_OF_ASC_NODE":298.6759,"ARG_OF_PERICENTER":99.0113,"MEAN_ANOMALY":261.1225,"EPHEMERIS_TYPE":0,"NORAD_CAT_ID":54137,"ELEMENT_SET_NO":999,"REV_AT_EPOCH":18100,"BSTAR":0.0000044925,"MEAN_MOTION_DOT":1.5e-7,"MEAN_MOTION_DDOT":0}]}
